NORAD_CAT_ID,OBJECT_NAME,OBJECT_TYPE,EPOCH,MEAN_MOTION,ECCENTRICITY,INCLINATION,RA_OF_ASC_NODE,ARG_OF_PERICENTER,MEAN_ANOMALY,BSTAR,MEAN_MOTION_DOT,MEAN_MOTION_DDOT,TLE_LINE0,TLE_LINE1,TLE_LINE2,SEMIMAJOR_AXIS,PERIOD,APOGEE,PERIGEE,DECAYED
49177.0,STARLINK-3103,PAYLOAD,2023-05-10 00:19:03,14.98329713,0.000332,69.9997,343.2507,267.304,92.7739,8.5049e-05,9.22e-06,0.0,0 STARLINK-3103,1 49177U 21082AZ  23130.01323497  .00000922  00000-0  85049-4 0  9992,2 49177  69.9997 343.2507 0003320 267.3040  92.7739 14.98329713 93177,6950.194,96.107,574.366,569.751,0.0
49177.0,STARLINK-3103,PAYLOAD,2023-05-10 21:08:47,14.98343177,0.0003124,70.0002,341.0645,264.6749,95.4054,6.8023e-05,7.19e-06,0.0,0 STARLINK-3103,1 49177U 21082AZ  23130.88110523  .00000719  00000-0  68023-4 0  9998,2 49177  70.0002 341.0645 0003124 264.6749  95.4054 14.98343177 93309,6950.152,96.106,574.188,569.846,0.0
49177.0,STARLINK-3103,PAYLOAD,2023-05-11 00:21:03,14.98345902,0.000308,70.0002,340.7269,265.3101,94.7707,9.974e-05,1.098e-05,0.0,0 STARLINK-3103,1 49177U 21082AZ  23131.01462155  .00001098  00000-0  99740-4 0  9996,2 49177  70.0002 340.7269 0003080 265.3101  94.7707 14.98345902 93325,6950.144,96.106,574.149,569.868,0.0
49177.0,STARLINK-3103,PAYLOAD,2023-05-11 16:22:25,14.98326303,0.0002693,70.0013,339.0464,249.6308,110.4562,1.1469e-05,4.4e-07,0.0,0 STARLINK-3103,1 49177U 21082AZ  23131.68223420  .00000044  00000-0  11469-4 0  9991,2 49177  70.0013 339.0464 0002693 249.6308 110.4562 14.98326303 93428,6950.204,96.107,573.941,570.198,0.0
49177.0,STARLINK-3103,PAYLOAD,2023-05-11 17:58:33,14.98326436,0.0002724,70.0014,338.8786,246.2858,113.8015,8.9975e-07,-8.2e-07,0.0,0 STARLINK-3103,1 49177U 21082AZ  23131.74899431 -.00000082  00000-0  89975-6 0  9991,2 49177  70.0014 338.8786 0002724 246.2858 113.8015 14.98326436 93439,6950.204,96.107,573.962,570.176,0.0
49177.0,STARLINK-3103,PAYLOAD,2023-05-11 22:46:57,14.98320876,0.0002764,70.0009,338.3717,258.8718,101.213,-4.5997e-05,-6.42e-06,0.0,0 STARLINK-3103,1 49177U 21082AZ  23131.94928033 -.00000642  00000-0 -45997-4 0  9991,2 49177  70.0009 338.3717 0002764 258.8718 101.2130 14.98320876 93464,6950.221,96.108,574.007,570.165,0.0
49177.0,STARLINK-3103,PAYLOAD,2023-05-12 00:23:05,14.98320927,0.0002769,70.0009,338.2032,260.0155,100.0691,-4.654e-05,-6.48e-06,0.0,0 STARLINK-3103,1 49177U 21082AZ  23132.01604066 -.00000648  00000-0 -46540-4 0  9998,2 49177  70.0009 338.2032 0002769 260.0155 100.0691 14.98320927 93475,6950.221,96.108,574.01,570.161,0.0
49177.0,STARLINK-3103,PAYLOAD,2023-05-12 21:12:49,14.98336295,0.0003269,69.9994,336.0128,271.3532,88.7253,-6.8889e-05,-9.15e-06,0.0,0 STARLINK-3103,1 49177U 21082AZ  23132.88391175 -.00000915  00000-0 -68889-4 0  9994,2 49177  69.9994 336.0128 0003269 271.3532  88.7253 14.98336295 93603,6950.173,96.107,574.31,569.766,0.0
49177.0,STARLINK-3103,PAYLOAD,2023-05-12 22:48:57,14.98337218,0.0003252,69.9994,335.8445,271.6735,88.4052,-5.5235e-05,-7.52e-06,0.0,0 STARLINK-3103,1 49177U 21082AZ  23132.95067061 -.00000752  00000-0 -55235-4 0  9996,2 49177  69.9994 335.8445 0003252 271.6735  88.4052 14.98337218 93613,6950.171,96.107,574.296,569.775,0.0
49177.0,STARLINK-3103,PAYLOAD,2023-05-13 21:14:51,14.98327245,0.0003224,69.9996,333.4879,271.9224,88.1566,7.98e-05,8.59e-06,0.0,0 STARLINK-3103,1 49177U 21082AZ  23133.88531350  .00000859  00000-0  79800-4 0  9996,2 49177  69.9996 333.4879 0003224 271.9224  88.1566 14.98327245 93756,6950.201,96.107,574.307,569.826,0.0
49177.0,STARLINK-3103,PAYLOAD,2023-05-13 22:50:59,14.98327255,0.0003239,69.9996,333.3196,271.9918,88.087,7.6767e-05,8.23e-06,0.0,0 STARLINK-3103,1 49177U 21082AZ  23133.95207367  .00000823  00000-0  76767-4 0  9992,2 49177  69.9996 333.3196 0003239 271.9918  88.0870 14.98327255 93762,6950.201,96.107,574.318,569.815,0.0
49177.0,STARLINK-3103,PAYLOAD,2023-05-14 13:16:11,14.98326976,0.0003241,69.9996,331.8043,268.3974,91.6814,2.1937e-05,1.69e-06,0.0,0 STARLINK-3103,1 49177U 21082AZ  23134.55291575  .00000169  00000-0  21937-4 0  9995,2 49177  69.9996 331.8043 0003241 268.3974  91.6814 14.98326976 93858,6950.202,96.107,574.32,569.815,0.0
49177.0,STARLINK-3103,PAYLOAD,2023-05-14 21:16:52,14.98329616,0.0003209,69.9995,330.9626,269.884,90.1951,3.9435e-05,3.78e-06,0.0,0 STARLINK-3103,1 49177U 21082AZ  23134.88671407  .00000378  00000-0  39435-4 0  9991,2 49177  69.9995 330.9626 0003209 269.8840  90.1951 14.98329616 93902,6950.194,96.107,574.289,569.829,0.0
49177.0,STARLINK-3103,PAYLOAD,2023-05-14 22:53:00,14.98330559,0.0003242,69.9995,330.7943,270.4013,89.6774,2.6955e-05,2.29e-06,0.0,0 STARLINK-3103,1 49177U 21082AZ  23134.95347379  .00000229  00000-0  26955-4 0  9995,2 49177  69.9995 330.7943 0003242 270.4013  89.6774 14.98330559 93914,6950.191,96.107,574.309,569.803,0.0
49177.0,STARLINK-3103,PAYLOAD,2023-05-15 11:42:04,14.98330865,0.0003189,69.9996,329.4464,270.511,89.5684,2.9574e-05,2.6e-06,0.0,0 STARLINK-3103,1 49177U 21082AZ  23135.48755346  .00000260  00000-0  29574-4 0  9996,2 49177  69.9996 329.4464 0003189 270.5110  89.5684 14.98330865 93994,6950.19,96.107,574.272,569.839,0.0
49177.0,STARLINK-3103,PAYLOAD,2023-05-15 19:42:44,14.98333214,0.000322,69.9994,328.605,270.885,89.194,5.1851e-05,5.26e-06,0.0,0 STARLINK-3103,1 49177U 21082AZ  23135.82135095  .00000526  00000-0  51851-4 0  9995,2 49177  69.9994 328.6050 0003220 270.8850  89.1940 14.98333214 94043,6950.183,96.107,574.286,569.81,0.0
49177.0,STARLINK-3103,PAYLOAD,2023-05-15 22:55:00,14.9833212,0.0003249,69.9994,328.2685,271.1339,88.9447,3.7629e-05,3.56e-06,0.0,0 STARLINK-3103,1 49177U 21082AZ  23135.95487195  .00000356  00000-0  37629-4 0  9998,2 49177  69.9994 328.2685 0003249 271.1339  88.9447 14.98332120 94066,6950.186,96.107,574.309,569.793,0.0
49177.0,STARLINK-3103,PAYLOAD,2023-05-16 13:20:13,14.98329659,0.0003288,69.9991,326.7536,270.6867,89.3915,4.955e-06,-3.4e-07,0.0,0 STARLINK-3103,1 49177U 21082AZ  23136.55571405 -.00000034  00000-0  49550-5 0  9994,2 49177  69.9991 326.7536 0003288 270.6867  89.3915 14.98329659 94152,6950.194,96.107,574.344,569.774,0.0
49177.0,STARLINK-3103,PAYLOAD,2023-05-16 19:44:45,14.9833176,0.0003288,69.9992,326.0803,270.7998,89.2784,2.6623e-05,2.25e-06,0.0,0 STARLINK-3103,1 49177U 21082AZ  23136.82275192  .00000225  00000-0  26623-4 0  9994,2 49177  69.9992 326.0803 0003288 270.7998  89.2784 14.98331760 94192,6950.187,96.107,574.338,569.767,0.0
49177.0,STARLINK-3103,PAYLOAD,2023-05-16 22:57:01,14.98332193,0.0003278,69.9991,325.7435,270.8635,89.2148,3.0598e-05,2.72e-06,0.0,0 STARLINK-3103,1 49177U 21082AZ  23136.95627136  .00000272  00000-0  30598-4 0  9995,2 49177  69.9991 325.7435 0003278 270.8635  89.2148 14.98332193 94214,6950.186,96.107,574.329,569.773,0.0
49177.0,STARLINK-3103,PAYLOAD,2023-05-17 21:22:54,14.98331552,0.0003174,69.9995,323.3873,270.9307,89.1488,1.0129e-05,2.8e-07,0.0,0 STARLINK-3103,1 49177U 21082AZ  23137.89091160  .00000028  00000-0  10129-4 0  9998,2 49177  69.9995 323.3873 0003174 270.9307  89.1488 14.98331552 94359,6950.188,96.107,574.259,569.847,0.0
49177.0,STARLINK-3103,PAYLOAD,2023-05-17 22:59:02,14.98332122,0.0003178,69.9994,323.2188,271.2329,88.8466,1.4981e-05,8.6e-07,0.0,0 STARLINK-3103,1 49177U 21082AZ  23137.95767102  .00000086  00000-0  14981-4 0  9995,2 49177  69.9994 323.2188 0003178 271.2329  88.8466 14.98332122 94365,6950.186,96.107,574.26,569.843,0.0
49177.0,STARLINK-3103,PAYLOAD,2023-05-18 13:24:15,14.98329995,0.0003183,69.9994,321.7038,269.999,90.0805,4.9221e-06,-3.4e-07,0.0,0 STARLINK-3103,1 49177U 21082AZ  23138.55851204 -.00000034  00000-0  49221-5 0  9999,2 49177  69.9994 321.7038 0003183 269.9990  90.0805 14.98329995 94452,6950.193,96.107,574.27,569.846,0.0
49177.0,STARLINK-3103,PAYLOAD,2023-05-18 18:12:39,14.98330471,0.0003183,69.9994,321.1989,269.8908,90.1886,1.0018e-05,2.7e-07,0.0,0 STARLINK-3103,1 49177U 21082AZ  23138.75879148  .00000027  00000-0  10018-4 0  9990,2 49177  69.9994 321.1989 0003183 269.8908  90.1886 14.98330471 94483,6950.191,96.107,574.269,569.844,0.0
49177.0,STARLINK-3103,PAYLOAD,2023-05-19 05:25:36,14.98329901,0.0003182,69.9994,320.0205,270.0991,89.9803,9.1509e-06,1.6e-07,0.0,0 STARLINK-3103,1 49177U 21082AZ  23139.22611170  .00000016  00000-0  91509-5 0  9995,2 49177  69.9994 320.0205 0003182 270.0991  89.9803 14.98329901 94556,6950.193,96.107,574.27,569.847,0.0
49177.0,STARLINK-3103,PAYLOAD,2023-05-19 21:26:56,14.98329173,0.0003175,69.9994,318.337,269.9731,90.1064,-2.2763e-06,-1.2e-06,0.0,0 STARLINK-3103,1 49177U 21082AZ  23139.89371270 -.00000120  00000-0 -22763-5 0  9996,2 49177  69.9994 318.3370 0003175 269.9731  90.1064 14.98329173 94655,6950.195,96.107,574.267,569.854,0.0
49177.0,STARLINK-3103,PAYLOAD,2023-05-20 05:27:36,14.98330819,0.0003186,69.9994,317.4953,270.0246,90.0548,1.8671e-05,1.3e-06,0.0,0 STARLINK-3103,1 49177U 21082AZ  23140.22751122  .00000130  00000-0  18671-4 0  9994,2 49177  69.9994 317.4953 0003186 270.0246  90.0548 14.98330819 94709,6950.19,96.107,574.27,569.841,0.0
49177.0,STARLINK-3103,PAYLOAD,2023-05-20 18:16:40,14.98337248,0.00032,69.9993,316.1482,269.0789,91.0004,8.4621e-05,9.17e-06,0.0,0 STARLINK-3103,1 49177U 21082AZ  23140.76158437  .00000917  00000-0  84621-4 0  9994,2 49177  69.9993 316.1482 0003200 269.0789  91.0004 14.98337248 94787,6950.17,96.107,574.26,569.811,0.0
49177.0,STARLINK-3103,PAYLOAD,2023-05-20 19:52:48,14.98337591,0.0003194,69.9993,315.9798,269.1369,90.9424,8.7169e-05,9.47e-06,0.0,0 STARLINK-3103,1 49177U 21082AZ  23140.82834381  .00000947  00000-0  87169-4 0  9993,2 49177  69.9993 315.9798 0003194 269.1369  90.9424 14.98337591 94797,6950.169,96.107,574.254,569.815,0.0
49177.0,STARLINK-3103,PAYLOAD,2023-05-21 11:54:10,14.98326282,0.0003038,70.0001,314.2976,268.6049,91.4762,-1.0154e-05,-2.14e-06,0.0,0 STARLINK-3103,1 49177U 21082AZ  23141.49595319 -.00000214  00000-0 -10154-4 0  9991,2 49177  70.0001 314.2976 0003038 268.6049  91.4762 14.98326282 94893,6950.204,96.107,574.181,569.958,0.0
